CZ-2C R/B               
1 54039U 22132E   26050.55027500  .00039437  00000+0  47979-3 0  9992
2 54039  97.2957  53.3414 0019949 150.3928 209.8463 15.60202073187545
GSLV R/B                
1 54149U 22138AN  26050.40143664  .00003575  00000+0  31012-3 0  9999
2 54149  87.3879 172.4815 0020352 212.7150 147.2823 14.96627442181197
XRISM                   
1 57800U 23137A   26050.34680994  .00005086  00000+0  28918-3 0  9991
2 57800  31.0030  42.2797 0008309 216.4510 143.5563 15.11260329135016
ACS3                    
1 59588U 24077B   26050.41924459  .00017463  00000+0  14320-1 0  9997
2 59588  97.2173 355.6395 0048818 129.8178 230.7298 13.88799682 91661
SZ-21 MODULE            
1 66515U 25246C   26050.09062311  .00030016  00000+0  27526-3 0  9991
2 66515  41.4761 317.7232 0001783 298.3543  61.7118 15.67079513 15156
